OBJECT_NAME,OBJECT_ID,EPOCH,MEAN_MOTION,ECCENTRICITY,INCLINATION,RA_OF_ASC_NODE,ARG_OF_PERICENTER,MEAN_ANOMALY,EPHEMERIS_TYPE,CLASSIFICATION_TYPE,NORAD_CAT_ID,ELEMENT_SET_NO,REV_AT_EPOCH,BSTAR,MEAN_MOTION_DOT,MEAN_MOTION_DDOT
ONEWEB-0309,2021-075W,2026-06-28T22:26:30.414336,13.17649236,.00022233,87.9130,3.5253,99.8510,260.2872,0,U,49095,999,23512,-.690738E-5,.1E-6,0
ONEWEB-0310,2021-075X,2026-06-28T21:35:51.299520,13.12443477,.00018349,87.8942,348.3499,93.8591,266.2748,0,U,49096,999,23672,-.37646105E-4,-.1E-7,0
ONEWEB-0311,2021-075Y,2026-06-28T22:36:12.725280,13.17650692,.00020723,87.9132,3.5239,78.4730,281.6634,0,U,49097,999,23517,.12926785E-3,.63E-6,0
ONEWEB-0312,2021-075Z,2026-06-28T22:58:04.988352,13.17648194,.00021691,87.9131,3.5313,88.0876,272.0504,0,U,49098,999,23515,.14373586E-3,.69E-6,0
ONEWEB-0313,2021-075AA,2026-06-28T21:15:50.321376,13.17649264,.00019395,87.9129,3.5509,86.6860,273.4493,0,U,49099,999,23513,-.1744354E-5,.12E-6,0
ONEWEB-0314,2021-075AB,2026-06-28T22:16:47.692128,13.17649862,.00022424,87.9141,3.5165,86.8007,273.3381,0,U,49100,999,23511,-.24415427E-4,.3E-7,0
ONEWEB-0315,2021-075AC,2026-06-28T22:46:35.410080,13.12440800,.00018891,87.8954,348.3050,80.9305,279.2038,0,U,49101,999,23671,-.10769682E-2,-.375E-5,0
ONEWEB-0316,2021-075AD,2026-06-28T22:04:18.433920,13.18675921,.00018347,87.9177,333.1215,96.0990,264.0351,0,U,49102,999,23875,-.29161887E-3,-.102E-5,0
ONEWEB-0317,2021-075AE,2026-06-28T22:51:28.116000,13.12441323,.00019981,87.8956,348.3285,114.5343,245.5994,0,U,49103,999,23673,-.10966837E-2,-.382E-5,0
ONEWEB-0318,2021-075AF,2026-06-28T21:59:28.312224,13.18678792,.0001889,87.9178,333.1238,89.1631,270.9718,0,U,49104,999,23871,.36313141E-2,.1445E-4,0
ONEWEB-0319,2021-075AG,2026-06-28T22:38:39.014304,13.17649541,.0001936,87.9131,3.5287,73.8773,286.2571,0,U,49105,999,23515,-.13474798E-4,.8E-7,0
ONEWEB-0323,2021-075AH,2026-06-28T22:24:38.730240,13.12441158,.00020713,87.8954,348.3133,78.2299,281.9062,0,U,49106,999,23609,.52294961E-3,.201E-5,0
ONEWEB-0329,2021-075AJ,2026-06-28T21:01:27.438528,13.17649023,.00019863,87.9131,3.5430,88.3063,271.8296,0,U,49107,999,23512,-.20565637E-3,-.67E-6,0
ONEWEB-0330,2021-075AK,2026-06-28T23:08:38.822208,13.19183724,.00021046,87.9135,3.5406,91.8446,268.2928,0,U,49108,999,23517,.804935E-5,.16E-6,0
ONEWEB-0292,2021-083A,2026-06-28T21:31:32.324160,13.13469518,.00018568,87.8963,317.9065,93.4411,266.6930,0,U,49186,999,23246,.18225745E-3,.79E-6,0
ONEWEB-0303,2021-083B,2026-06-28T21:54:36.496224,13.18687172,.00018814,87.9176,333.1233,89.5833,270.5515,0,U,49187,999,23152,.70309312E-4,.41E-6,0
ONEWEB-0306,2021-083C,2026-06-28T21:40:01.733376,13.18688155,.00018983,87.9181,333.1136,102.0010,258.1335,0,U,49188,999,23156,.14371523E-3,.7E-6,0
ONEWEB-0307,2021-083D,2026-06-28T21:23:00.669408,13.13471272,.0001925,87.8964,317.9051,94.7519,265.3830,0,U,49189,999,23246,-.15798879E-3,-.45E-6,0
ONEWEB-0320,2021-083E,2026-06-28T22:09:10.632672,13.18686272,.0001835,87.9169,333.1267,96.4581,263.6760,0,U,49190,999,23152,-.12554302E-3,-.37E-6,0
ONEWEB-0321,2021-083F,2026-06-28T19:00:13.889952,13.20772761,.00020252,87.9194,272.1223,108.1455,251.9899,0,U,49191,999,23836,-.11040529E-3,-.32E-6,0
ONEWEB-0322,2021-083G,2026-06-28T21:16:55.504992,13.13471265,.00016131,87.8964,317.9062,111.2444,248.8858,0,U,49192,999,23245,-.38258918E-3,-.127E-5,0
ONEWEB-0324,2021-083H,2026-06-28T21:30:20.338272,13.18685991,.00020403,87.9182,333.1205,97.0324,263.1040,0,U,49193,999,23154,.58947904E-4,.36E-6,0
ONEWEB-0325,2021-083J,2026-06-28T21:35:11.608224,13.18686430,.00017718,87.9171,333.1270,94.3570,265.7764,0,U,49194,999,23155,-.14709897E-3,-.45E-6,0
ONEWEB-0326,2021-083K,2026-06-28T21:57:15.399648,13.18685518,.00018431,87.9180,333.1228,86.3384,273.7959,0,U,49195,999,23154,-.25215752E-4,.3E-7,0
ONEWEB-0327,2021-083L,2026-06-28T21:56:51.150624,13.18685774,.00016956,87.9171,333.1262,83.1474,276.9851,0,U,49196,999,23156,.64192837E-4,.38E-6,0
ONEWEB-0328,2021-083M,2026-06-28T21:02:17.201472,13.13470734,.00020203,87.8973,317.8822,98.9617,261.1741,0,U,49197,999,23243,-.10239221E-2,-.361E-5,0
ONEWEB-0331,2021-083N,2026-06-28T21:47:18.805920,13.18687161,.00019478,87.9181,333.1181,85.1998,274.9357,0,U,49198,999,23155,-.1926203E-5,.12E-6,0
ONEWEB-0333,2021-083P,2026-06-28T22:44:40.064352,13.13469895,.00018157,87.8964,317.8933,97.5905,262.5431,0,U,49199,999,23245,-.97669447E-3,-.344E-5,0
ONEWEB-0334,2021-083Q,2026-06-28T22:59:00.354336,13.20774290,.00018113,87.9192,272.0994,123.9819,236.1486,0,U,49200,999,23834,.11649352E-3,.6E-6,0
ONEWEB-0335,2021-083R,2026-06-28T22:37:20.829216,13.13471062,.00019141,87.8966,317.8913,92.8524,267.2824,0,U,49201,999,23246,-.7773515E-3,-.271E-5,0
