[
  {
    "name": "ONEWEB-0309",
    "noradId": "49095",
    "line1": "1 49095U 21075W   26179.93507424  .00000010  00000+0 -69074-5 0  9993",
    "line2": "2 49095  87.9130   3.5253 0002223  99.8510 260.2872 13.17649236235128"
  },
  {
    "name": "ONEWEB-0310",
    "noradId": "49096",
    "line1": "1 49096U 21075X   26179.89989930 -.00000001  00000+0 -37646-4 0  9995",
    "line2": "2 49096  87.8942 348.3499 0001834  93.8591 266.2748 13.12443477236720"
  },
  {
    "name": "ONEWEB-0311",
    "noradId": "49097",
    "line1": "1 49097U 21075Y   26179.94181395  .00000063  00000+0  12927-3 0  9991",
    "line2": "2 49097  87.9132   3.5239 0002072  78.4730 281.6634 13.17650692235171"
  },
  {
    "name": "ONEWEB-0312",
    "noradId": "49098",
    "line1": "1 49098U 21075Z   26179.95700218  .00000069  00000+0  14374-3 0  9998",
    "line2": "2 49098  87.9131   3.5313 0002169  88.0876 272.0504 13.17648194235151"
  },
  {
    "name": "ONEWEB-0313",
    "noradId": "49099",
    "line1": "1 49099U 21075AA  26179.88599909  .00000012  00000+0 -17444-5 0  9996",
    "line2": "2 49099  87.9129   3.5509 0001939  86.6860 273.4493 13.17649264235136"
  },
  {
    "name": "ONEWEB-0314",
    "noradId": "49100",
    "line1": "1 49100U 21075AB  26179.92832977  .00000003  00000+0 -24415-4 0  9994",
    "line2": "2 49100  87.9141   3.5165 0002242  86.8007 273.3381 13.17649862235111"
  },
  {
    "name": "ONEWEB-0315",
    "noradId": "49101",
    "line1": "1 49101U 21075AC  26179.94902095 -.00000375  00000+0 -10770-2 0  9996",
    "line2": "2 49101  87.8954 348.3050 0001889  80.9305 279.2038 13.12440800236715"
  },
  {
    "name": "ONEWEB-0316",
    "noradId": "49102",
    "line1": "1 49102U 21075AD  26179.91965780 -.00000102  00000+0 -29162-3 0  9998",
    "line2": "2 49102  87.9177 333.1215 0001834  96.0990 264.0351 13.18675921238753"
  },
  {
    "name": "ONEWEB-0317",
    "noradId": "49103",
    "line1": "1 49103U 21075AE  26179.95240875 -.00000382  00000+0 -10967-2 0  9996",
    "line2": "2 49103  87.8956 348.3285 0001998 114.5343 245.5994 13.12441323236736"
  },
  {
    "name": "ONEWEB-0318",
    "noradId": "49104",
    "line1": "1 49104U 21075AF  26179.91629991  .00001445  00000+0  36313-2 0  9995",
    "line2": "2 49104  87.9178 333.1238 0001889  89.1631 270.9718 13.18678792238714"
  },
  {
    "name": "ONEWEB-0319",
    "noradId": "49105",
    "line1": "1 49105U 21075AG  26179.94350711  .00000008  00000+0 -13475-4 0  9991",
    "line2": "2 49105  87.9131   3.5287 0001936  73.8773 286.2571 13.17649541235157"
  },
  {
    "name": "ONEWEB-0323",
    "noradId": "49106",
    "line1": "1 49106U 21075AH  26179.93378160  .00000201  00000+0  52295-3 0  9995",
    "line2": "2 49106  87.8954 348.3133 0002071  78.2299 281.9062 13.12441158236093"
  },
  {
    "name": "ONEWEB-0329",
    "noradId": "49107",
    "line1": "1 49107U 21075AJ  26179.87601202 -.00000067  00000+0 -20566-3 0  9993",
    "line2": "2 49107  87.9131   3.5430 0001986  88.3063 271.8296 13.17649023235123"
  },
  {
    "name": "ONEWEB-0330",
    "noradId": "49108",
    "line1": "1 49108U 21075AK  26179.96433822  .00000016  00000+0  80493-5 0  9994",
    "line2": "2 49108  87.9135   3.5406 0002104  91.8446 268.2928 13.19183724235178"
  },
  {
    "name": "ONEWEB-0292",
    "noradId": "49186",
    "line1": "1 49186U 21083A   26179.89690190  .00000079  00000+0  18226-3 0  9996",
    "line2": "2 49186  87.8963 317.9065 0001856  93.4411 266.6930 13.13469518232464"
  },
  {
    "name": "ONEWEB-0303",
    "noradId": "49187",
    "line1": "1 49187U 21083B   26179.91292241  .00000041  00000+0  70309-4 0  9995",
    "line2": "2 49187  87.9176 333.1233 0001881  89.5833 270.5515 13.18687172231523"
  },
  {
    "name": "ONEWEB-0306",
    "noradId": "49188",
    "line1": "1 49188U 21083C   26179.90279784  .00000070  00000+0  14372-3 0  9991",
    "line2": "2 49188  87.9181 333.1136 0001898 102.0010 258.1335 13.18688155231566"
  },
  {
    "name": "ONEWEB-0307",
    "noradId": "49189",
    "line1": "1 49189U 21083D   26179.89097997 -.00000045  00000+0 -15799-3 0  9992",
    "line2": "2 49189  87.8964 317.9051 0001925  94.7519 265.3830 13.13471272232468"
  },
  {
    "name": "ONEWEB-0320",
    "noradId": "49190",
    "line1": "1 49190U 21083E   26179.92303973 -.00000037  00000+0 -12554-3 0  9999",
    "line2": "2 49190  87.9169 333.1267 0001835  96.4581 263.6760 13.18686272231527"
  },
  {
    "name": "ONEWEB-0321",
    "noradId": "49191",
    "line1": "1 49191U 21083F   26179.79182743 -.00000032  00000+0 -11041-3 0  9990",
    "line2": "2 49191  87.9194 272.1223 0002025 108.1455 251.9899 13.20772761238367"
  },
  {
    "name": "ONEWEB-0322",
    "noradId": "49192",
    "line1": "1 49192U 21083G   26179.88675353 -.00000127  00000+0 -38259-3 0  9990",
    "line2": "2 49192  87.8964 317.9062 0001613 111.2444 248.8858 13.13471265232457"
  },
  {
    "name": "ONEWEB-0324",
    "noradId": "49193",
    "line1": "1 49193U 21083H   26179.89606873  .00000036  00000+0  58948-4 0  9998",
    "line2": "2 49193  87.9182 333.1205 0002040  97.0324 263.1040 13.18685991231543"
  },
  {
    "name": "ONEWEB-0325",
    "noradId": "49194",
    "line1": "1 49194U 21083J   26179.89943991 -.00000045  00000+0 -14710-3 0  9994",
    "line2": "2 49194  87.9171 333.1270 0001771  94.3570 265.7764 13.18686430231558"
  },
  {
    "name": "ONEWEB-0326",
    "noradId": "49195",
    "line1": "1 49195U 21083K   26179.91476157  .00000003  00000+0 -25216-4 0  9990",
    "line2": "2 49195  87.9180 333.1228 0001843  86.3384 273.7959 13.18685518231546"
  },
  {
    "name": "ONEWEB-0327",
    "noradId": "49196",
    "line1": "1 49196U 21083L   26179.91448091  .00000038  00000+0  64193-4 0  9991",
    "line2": "2 49196  87.9171 333.1262 0001695  83.1474 276.9851 13.18685774231567"
  },
  {
    "name": "ONEWEB-0328",
    "noradId": "49197",
    "line1": "1 49197U 21083M   26179.87658798 -.00000361  00000+0 -10239-2 0  9995",
    "line2": "2 49197  87.8973 317.8822 0002020  98.9617 261.1741 13.13470734232438"
  },
  {
    "name": "ONEWEB-0331",
    "noradId": "49198",
    "line1": "1 49198U 21083N   26179.90785655  .00000012  00000+0 -19262-5 0  9993",
    "line2": "2 49198  87.9181 333.1181 0001947  85.1998 274.9357 13.18687161231553"
  },
  {
    "name": "ONEWEB-0333",
    "noradId": "49199",
    "line1": "1 49199U 21083P   26179.94768593 -.00000344  00000+0 -97669-3 0  9994",
    "line2": "2 49199  87.8964 317.8933 0001815  97.5905 262.5431 13.13469895232458"
  },
  {
    "name": "ONEWEB-0334",
    "noradId": "49200",
    "line1": "1 49200U 21083Q   26179.95764299  .00000060  00000+0  11649-3 0  9994",
    "line2": "2 49200  87.9192 272.0994 0001811 123.9819 236.1486 13.20774290238345"
  },
  {
    "name": "ONEWEB-0335",
    "noradId": "49201",
    "line1": "1 49201U 21083R   26179.94260219 -.00000271  00000+0 -77735-3 0  9991",
    "line2": "2 49201  87.8966 317.8913 0001914  92.8524 267.2824 13.13471062232465"
  }
]